{
  "type": "FeatureCollection",
  "features": [
    {
      "type": "Feature",
      "properties": {
        "name": "Chelpek",
        "name_ru": "Челпек",
        "name_ky": "Челпек",
        "type": "village",
        "description_en": "Sart-Kalmyk village near Karakol",
        "description_ru": "Сарт-калмыцкое село недалеко от Каракола",
        "description_ky": "Сарт-калмак айылы Караколдун жанында"
      },
      "geometry": {
        "type": "Polygon",
        "coordinates": [[
            [
              78.34188047915035,
              42.47595703860648
            ],
            [
              78.3449953856794,
              42.46721865118863
            ],
            [
              78.34836561241553,
              42.46480784686008
            ],
            [
              78.35030604598973,
              42.45889344927352
            ],
            [
              78.35714862754583,
              42.452752432635094
            ],
            [
              78.36281673614707,
              42.460023632118265
            ],
            [
              78.34805922816571,
              42.47701158906443
            ],
            [
              78.34489325759557,
              42.47655964104456
            ],
            [
              78.34188047915035,
              42.47595703860648
            ]
        ]]
      }
    },
    {
      "type": "Feature",
      "properties": {
        "name": "Borubash",
        "name_ru": "Борубаш",
        "name_ky": "Борубаш",
        "type": "village",
        "description_en": "Sart-Kalmyk village near Karakol",
        "description_ru": "Сарт-калмыцкое село недалеко от Каракола",
        "description_ky": "Сарт-калмак айылы Караколдун жанында"
      },
      "geometry": {
        "type": "Polygon",
        "coordinates": [[
                        [
              78.3504757445026,
              42.53044159177355
            ],
            [
              78.35508827552184,
              42.51413316934452
            ],
            [
              78.36063577904406,
              42.51555745473868
            ],
            [
              78.36150842004724,
              42.51307642049599
            ],
            [
              78.36824022207571,
              42.51440884001886
            ],
            [
              78.36493665256228,
              42.53384055774663
            ],
            [
              78.35521293852139,
              42.53296786791648
            ],
            [
              78.3504757445026,
              42.53044159177355
            ]
        ]]
      }
    },
    {
      "type": "Feature",
      "properties": {
        "name": "Tashkiya",
        "name_ru": "Ташкия",
        "name_ky": "Ташкия",
        "type": "village",
        "description_en": "Sart-Kalmyk village near Karakol",
        "description_ru": "Сарт-калмыцкое село недалеко от Каракола",
        "description_ky": "Сарт-калмак айылы Караколдун жанында"
      },
      "geometry": {
        "type": "Polygon",
        "coordinates": [[
            [78.36020738495387, 42.46493863251922],
            [78.36543281245673, 42.457516389508385],
            [78.3842331837281, 42.461232440383014],
            [78.3953030868621, 42.4577222543727],
            [78.38800577624988, 42.4736492591054],
            [78.36020738495387, 42.46493863251922]
        ]]
      }
    },
    {
      "type": "Feature",
      "properties": {
        "name": "Burma-suu",
        "name_ru": "Бурма-суу",
        "name_ky": "Бурма-суу",
        "type": "village",
        "description_en": "Sart-Kalmyk village near Karakol",
        "description_ru": "Сарт-калмыцкое село недалеко от Каракола",
        "description_ky": "Сарт-калмак айылы Караколдун жанында"
      },
      "geometry": {
        "type": "Polygon",
        "coordinates": [[
            [78.33362307854446, 42.46623481362553],
            [78.33460872256262, 42.45530388405132],
            [78.34679089254257, 42.45406200705119],
            [78.35294377231179, 42.45468704476755],
            [78.34792442653082, 42.46394899835997],
            [78.34351837370258, 42.467996532560534],
            [78.34135103027921, 42.4703362444524],
            [78.33315393919304, 42.46897286158375],
            [78.33362307854446, 42.46623481362553]
        ]]
      }
    }
  ]
}
